[{"OBJECT_NAME":"SALSAT","OBJECT_ID":"2020-068K","EPOCH":"2026-03-28T12:41:19.479552","MEAN_MOTION":15.285403,"ECCENTRICITY":0.00086745,"INCLINATION":97.8863,"RA_OF_ASC_NODE":85.7603,"ARG_OF_PERICENTER":217.3238,"MEAN_ANOMALY":142.7398,"EPHEMERIS_TYPE":0,"CLASSIFICATION_TYPE":"U","NORAD_CAT_ID":46495,"ELEMENT_SET_NO":999,"REV_AT_EPOCH":30303,"BSTAR":0.00037480321,"MEAN_MOTION_DOT":0.0001034,"MEAN_MOTION_DDOT":0},{"OBJECT_NAME":"XW-3 (CAS-9)","OBJECT_ID":"2021-131B","EPOCH":"2026-03-28T14:17:34.257696","MEAN_MOTION":14.41274832,"ECCENTRICITY":0.00038063,"INCLINATION":98.4945,"RA_OF_ASC_NODE":180.4414,"ARG_OF_PERICENTER":358.2664,"MEAN_ANOMALY":1.8511,"EPHEMERIS_TYPE":0,"CLASSIFICATION_TYPE":"U","NORAD_CAT_ID":50466,"ELEMENT_SET_NO":999,"REV_AT_EPOCH":22350,"BSTAR":0.00024063527,"MEAN_MOTION_DOT":7.34e-6,"MEAN_MOTION_DDOT":0},{"OBJECT_NAME":"GREENCUBE (IO-117)","OBJECT_ID":"2022-080E","EPOCH":"2026-03-28T02:20:43.789920","MEAN_MOTION":6.42583216,"ECCENTRICITY":0.00088986,"INCLINATION":70.1559,"RA_OF_ASC_NODE":326.457,"ARG_OF_PERICENTER":308.0956,"MEAN_ANOMALY":51.8901,"EPHEMERIS_TYPE":0,"CLASSIFICATION_TYPE":"U","NORAD_CAT_ID":53109,"ELEMENT_SET_NO":999,"REV_AT_EPOCH":8685,"BSTAR":0,"MEAN_MOTION_DOT":-3.0e-8,"MEAN_MOTION_DDOT":0},{"OBJECT_NAME":"UMKA 1 (RS40S)","OBJECT_ID":"2023-091G","EPOCH":"2026-03-28T14:25:05.416032","MEAN_MOTION":15.19866279,"ECCENTRICITY":0.00139743,"INCLINATION":97.5143,"RA_OF_ASC_NODE":146.6293,"ARG_OF_PERICENTER":46.7976,"MEAN_ANOMALY":313.4424,"EPHEMERIS_TYPE":0,"CLASSIFICATION_TYPE":"U","NORAD_CAT_ID":57172,"ELEMENT_SET_NO":999,"REV_AT_EPOCH":15176,"BSTAR":0.00034244019,"MEAN_MOTION_DOT":7.298e-5,"MEAN_MOTION_DDOT":0},{"OBJECT_NAME":"CUBESX-HSE 3 (RS42S)","OBJECT_ID":"2023-091N","EPOCH":"2026-03-28T13:03:25.977024","MEAN_MOTION":15.29155828,"ECCENTRICITY":0.00113287,"INCLINATION":97.5173,"RA_OF_ASC_NODE":152.2086,"ARG_OF_PERICENTER":26.3296,"MEAN_ANOMALY":333.8517,"EPHEMERIS_TYPE":0,"CLASSIFICATION_TYPE":"U","NORAD_CAT_ID":57178,"ELEMENT_SET_NO":999,"REV_AT_EPOCH":15209,"BSTAR":0.00057938756,"MEAN_MOTION_DOT":0.00016366,"MEAN_MOTION_DDOT":0},{"OBJECT_NAME":"MONITOR-3 (RS58S)","OBJECT_ID":"2023-091Q","EPOCH":"2026-03-28T14:21:10.116000","MEAN_MOTION":15.26191195,"ECCENTRICITY":0.00124351,"INCLINATION":97.5169,"RA_OF_ASC_NODE":150.5213,"ARG_OF_PERICENTER":31.2248,"MEAN_ANOMALY":328.9726,"EPHEMERIS_TYPE":0,"CLASSIFICATION_TYPE":"U","NORAD_CAT_ID":57180,"ELEMENT_SET_NO":999,"REV_AT_EPOCH":15199,"BSTAR":0.00051723885,"MEAN_MOTION_DOT":0.00013342,"MEAN_MOTION_DDOT":0},{"OBJECT_NAME":"MONITOR-4 (RS57S)","OBJECT_ID":"2023-091S","EPOCH":"2026-03-28T13:58:11.415648","MEAN_MOTION":15.26280313,"ECCENTRICITY":0.00124397,"INCLINATION":97.5163,"RA_OF_ASC_NODE":150.4712,"ARG_OF_PERICENTER":31.8421,"MEAN_ANOMALY":328.3567,"EPHEMERIS_TYPE":0,"CLASSIFICATION_TYPE":"U","NORAD_CAT_ID":57182,"ELEMENT_SET_NO":999,"REV_AT_EPOCH":15199,"BSTAR":0.00052132585,"MEAN_MOTION_DOT":0.00013484,"MEAN_MOTION_DDOT":0},{"OBJECT_NAME":"MONITOR-2 (RS39S)","OBJECT_ID":"2023-091U","EPOCH":"2026-03-28T14:11:29.630688","MEAN_MOTION":15.18133193,"ECCENTRICITY":0.00121894,"INCLINATION":97.5166,"RA_OF_ASC_NODE":146.4056,"ARG_OF_PERICENTER":40.3168,"MEAN_ANOMALY":319.8968,"EPHEMERIS_TYPE":0,"CLASSIFICATION_TYPE":"U","NORAD_CAT_ID":57184,"ELEMENT_SET_NO":999,"REV_AT_EPOCH":15172,"BSTAR":0.00030091065,"MEAN_MOTION_DOT":6.085e-5,"MEAN_MOTION_DDOT":0},{"OBJECT_NAME":"SVYATOBOR 1 (RS60S)","OBJECT_ID":"2023-091X","EPOCH":"2026-03-28T14:20:10.275360","MEAN_MOTION":15.25200583,"ECCENTRICITY":0.00099019,"INCLINATION":97.5174,"RA_OF_ASC_NODE":151.0224,"ARG_OF_PERICENTER":25.5951,"MEAN_ANOMALY":334.5775,"EPHEMERIS_TYPE":0,"CLASSIFICATION_TYPE":"U","NORAD_CAT_ID":57187,"ELEMENT_SET_NO":999,"REV_AT_EPOCH":15202,"BSTAR":0.00046726694,"MEAN_MOTION_DOT":0.0001168,"MEAN_MOTION_DDOT":0},{"OBJECT_NAME":"VIZARD-METEO (RS38S)","OBJECT_ID":"2023-091Z","EPOCH":"2026-03-28T13:27:39.940416","MEAN_MOTION":15.33433004,"ECCENTRICITY":0.00071995,"INCLINATION":97.5164,"RA_OF_ASC_NODE":155.5641,"ARG_OF_PERICENTER":10.262,"MEAN_ANOMALY":349.8768,"EPHEMERIS_TYPE":0,"CLASSIFICATION_TYPE":"U","NORAD_CAT_ID":57189,"ELEMENT_SET_NO":999,"REV_AT_EPOCH":15232,"BSTAR":0.00062144767,"MEAN_MOTION_DOT":0.00020045,"MEAN_MOTION_DDOT":0},{"OBJECT_NAME":"NANOZOND 1 (RS49S)","OBJECT_ID":"2023-091AA","EPOCH":"2026-03-28T01:24:58.149504","MEAN_MOTION":15.84301767,"ECCENTRICITY":0.0004863,"INCLINATION":97.5003,"RA_OF_ASC_NODE":168.9041,"ARG_OF_PERICENTER":264.7706,"MEAN_ANOMALY":95.3009,"EPHEMERIS_TYPE":0,"CLASSIFICATION_TYPE":"U","NORAD_CAT_ID":57190,"ELEMENT_SET_NO":999,"REV_AT_EPOCH":15317,"BSTAR":0.0016178796,"MEAN_MOTION_DOT":0.00380566,"MEAN_MOTION_DDOT":0},{"OBJECT_NAME":"POLYTECH-UNIVERSE 3 (RS46S)","OBJECT_ID":"2023-091AB","EPOCH":"2026-03-28T13:30:50.628672","MEAN_MOTION":15.18324471,"ECCENTRICITY":0.00169111,"INCLINATION":97.5143,"RA_OF_ASC_NODE":145.8836,"ARG_OF_PERICENTER":54.3722,"MEAN_ANOMALY":305.9084,"EPHEMERIS_TYPE":0,"CLASSIFICATION_TYPE":"U","NORAD_CAT_ID":57191,"ELEMENT_SET_NO":999,"REV_AT_EPOCH":15171,"BSTAR":0.0003198689,"MEAN_MOTION_DOT":6.52e-5,"MEAN_MOTION_DDOT":0},{"OBJECT_NAME":"UTMN 2 (RS27S)","OBJECT_ID":"2023-091AP","EPOCH":"2026-03-28T11:25:39.714240","MEAN_MOTION":15.30025097,"ECCENTRICITY":0.0008205,"INCLINATION":97.5164,"RA_OF_ASC_NODE":153.6743,"ARG_OF_PERICENTER":16.3185,"MEAN_ANOMALY":343.8318,"EPHEMERIS_TYPE":0,"CLASSIFICATION_TYPE":"U","NORAD_CAT_ID":57203,"ELEMENT_SET_NO":999,"REV_AT_EPOCH":15219,"BSTAR":0.00055514,"MEAN_MOTION_DOT":0.00016088,"MEAN_MOTION_DDOT":0},{"OBJECT_NAME":"KUZGTU 1 (RS47S)","OBJECT_ID":"2023-091AV","EPOCH":"2026-03-28T14:23:23.530560","MEAN_MOTION":15.27981839,"ECCENTRICITY":0.00116369,"INCLINATION":97.5148,"RA_OF_ASC_NODE":151.3427,"ARG_OF_PERICENTER":29.1452,"MEAN_ANOMALY":331.0435,"EPHEMERIS_TYPE":0,"CLASSIFICATION_TYPE":"U","NORAD_CAT_ID":57217,"ELEMENT_SET_NO":999,"REV_AT_EPOCH":15206,"BSTAR":0.00055130793,"MEAN_MOTION_DOT":0.00015019,"MEAN_MOTION_DDOT":0},{"OBJECT_NAME":"SONATE-2","OBJECT_ID":"2024-043Q","EPOCH":"2026-03-28T13:11:13.545312","MEAN_MOTION":15.52842394,"ECCENTRICITY":0.00080382,"INCLINATION":97.5425,"RA_OF_ASC_NODE":233.4105,"ARG_OF_PERICENTER":138.6166,"MEAN_ANOMALY":221.5697,"EPHEMERIS_TYPE":0,"CLASSIFICATION_TYPE":"U","NORAD_CAT_ID":59112,"ELEMENT_SET_NO":999,"REV_AT_EPOCH":11535,"BSTAR":0.00073710387,"MEAN_MOTION_DOT":0.00045854,"MEAN_MOTION_DDOT":0},{"OBJECT_NAME":"MESAT1","OBJECT_ID":"2024-125G","EPOCH":"2026-03-28T13:28:35.227776","MEAN_MOTION":15.55354001,"ECCENTRICITY":0.00125571,"INCLINATION":97.2431,"RA_OF_ASC_NODE":303.6281,"ARG_OF_PERICENTER":151.0766,"MEAN_ANOMALY":209.1187,"EPHEMERIS_TYPE":0,"CLASSIFICATION_TYPE":"U","NORAD_CAT_ID":60209,"ELEMENT_SET_NO":999,"REV_AT_EPOCH":9700,"BSTAR":0.00079730703,"MEAN_MOTION_DOT":0.00054514,"MEAN_MOTION_DDOT":0}]
