SALSAT                  
1 46495U 20068K   26087.52869768  .00010340  00000+0  37480-3 0  9990
2 46495  97.8863  85.7603 0008674 217.3238 142.7398 15.28540300303032
XW-3 (CAS-9)            
1 50466U 21131B   26087.59553539  .00000734  00000+0  24064-3 0  9998
2 50466  98.4945 180.4414 0003806 358.2664   1.8511 14.41274832223509
GREENCUBE (IO-117)      
1 53109U 22080E   26087.09772905 -.00000003  00000+0  00000+0 0  9994
2 53109  70.1559 326.4570 0008898 308.0956  51.8901  6.42583216 86856
UMKA 1 (RS40S)          
1 57172U 23091G   26087.60075713  .00007298  00000+0  34244-3 0  9994
2 57172  97.5143 146.6293 0013974  46.7976 313.4424 15.19866279151762
CUBESX-HSE 3 (RS42S)    
1 57178U 23091N   26087.54405066  .00016366  00000+0  57939-3 0  9993
2 57178  97.5173 152.2086 0011328  26.3296 333.8517 15.29155828152092
MONITOR-3 (RS58S)       
1 57180U 23091Q   26087.59803375  .00013342  00000+0  51724-3 0  9993
2 57180  97.5169 150.5213 0012435  31.2248 328.9726 15.26191195151994
MONITOR-4 (RS57S)       
1 57182U 23091S   26087.58207657  .00013484  00000+0  52133-3 0  9997
2 57182  97.5163 150.4712 0012439  31.8421 328.3567 15.26280313151994
MONITOR-2 (RS39S)       
1 57184U 23091U   26087.59131517  .00006085  00000+0  30091-3 0  9999
2 57184  97.5166 146.4056 0012189  40.3168 319.8968 15.18133193151725
SVYATOBOR 1 (RS60S)     
1 57187U 23091X   26087.59734115  .00011680  00000+0  46727-3 0  9995
2 57187  97.5174 151.0224 0009901  25.5951 334.5775 15.25200583152029
VIZARD-METEO (RS38S)    
1 57189U 23091Z   26087.56087894  .00020045  00000+0  62145-3 0  9996
2 57189  97.5164 155.5641 0007199  10.2620 349.8768 15.33433004152322
NANOZOND 1 (RS49S)      
1 57190U 23091AA  26087.05900636  .00380566  00000+0  16179-2 0  9992
2 57190  97.5003 168.9041 0004863 264.7706  95.3009 15.84301767153175
POLYTECH-UNIVERSE 3 (R*)
1 57191U 23091AB  26087.56308598  .00006520  00000+0  31987-3 0  9998
2 57191  97.5143 145.8836 0016911  54.3722 305.9084 15.18324471151710
UTMN 2 (RS27S)          
1 57203U 23091AP  26087.47615410  .00016088  00000+0  55514-3 0  9998
2 57203  97.5164 153.6743 0008205  16.3185 343.8318 15.30025097152199
KUZGTU 1 (RS47S)        
1 57217U 23091AV  26087.59957790  .00015019  00000+0  55131-3 0  9994
2 57217  97.5148 151.3427 0011636  29.1452 331.0435 15.27981839152067
SONATE-2                
1 59112U 24043Q   26087.54946233  .00045854  00000+0  73710-3 0  9996
2 59112  97.5425 233.4105 0008038 138.6166 221.5697 15.52842394115350
MESAT1                  
1 60209U 24125G   26087.56151884  .00054514  00000+0  79731-3 0  9990
2 60209  97.2431 303.6281 0012557 151.0766 209.1187 15.55354001 97007
